IRIDIUM 42              
1 25077U 97077A   25284.16377319  .00000578  00000+0  19066-3 0  9993
2 25077  86.4034 190.7088 0002956  87.7626 272.3910 14.36460091457845
IRIDIUM 44              
1 25078U 97077B   25284.15245910  .00000519  00000+0  15757-3 0  9992
2 25078  86.4022 172.3566 0003176  49.3217 310.8258 14.40354312460395
IRIDIUM 45              
1 25104U 97082A   25284.18006926  .00023846  00000+0  75809-3 0  9995
2 25104  86.3606 351.3979 0104394 255.1013 103.8655 15.27233101469718
IRIDIUM 24              
1 25105U 97082B   25284.04514521  .00000695  00000+0  20470-3 0  9997
2 25105  86.3945  31.1324 0013151  61.1239 299.1279 14.42235643459918
IRIDIUM 51              
1 25262U 98018A   25284.18569589  .00061533  00000+0  97045-3 0  9990
2 25262  86.3826 358.0267 0069888 161.0039 199.3854 15.50474236464923
IRIDIUM 57              
1 25273U 98019B   25283.91956625  .00000437  00000+0  14376-3 0  9996
2 25273  86.3904  96.7464 0002221  88.2879 271.8572 14.35975930441395
