<?xml version="1.0" encoding="UTF-8"?>
<ndm xmlns:xsi="http://www.w3.org/2001/XMLSchema-instance" xsi:noNamespaceSchemaLocation="https://sanaregistry.org/r/ndmxml_unqualified/ndmxml-2.0.0-master-2.0.xsd">
<omm id="CCSDS_OMM_VERS" version="2.0">
<header><CREATION_DATE/><ORIGINATOR/></header><body><segment><metadata><OBJECT_NAME>IRIDIUM 42</OBJECT_NAME><OBJECT_ID>1997-077A</OBJECT_ID><CENTER_NAME>EARTH</CENTER_NAME><REF_FRAME>TEME</REF_FRAME><TIME_SYSTEM>UTC</TIME_SYSTEM><MEAN_ELEMENT_THEORY>SGP4</MEAN_ELEMENT_THEORY></metadata><data><meanElements><EPOCH>2025-10-11T03:55:50.003616</EPOCH><MEAN_MOTION>14.36460091</MEAN_MOTION><ECCENTRICITY>.0002956</ECCENTRICITY><INCLINATION>86.4034</INCLINATION><RA_OF_ASC_NODE>190.7088</RA_OF_ASC_NODE><ARG_OF_PERICENTER>87.7626</ARG_OF_PERICENTER><MEAN_ANOMALY>272.3910</MEAN_ANOMALY></meanElements><tleParameters><EPHEMERIS_TYPE>0</EPHEMERIS_TYPE><CLASSIFICATION_TYPE>U</CLASSIFICATION_TYPE><NORAD_CAT_ID>25077</NORAD_CAT_ID><ELEMENT_SET_NO>999</ELEMENT_SET_NO><REV_AT_EPOCH>45784</REV_AT_EPOCH><BSTAR>.19066E-3</BSTAR><MEAN_MOTION_DOT>.578E-5</MEAN_MOTION_DOT><MEAN_MOTION_DDOT>0</MEAN_MOTION_DDOT></tleParameters></data></segment></body></omm>
<omm id="CCSDS_OMM_VERS" version="2.0">
<header><CREATION_DATE/><ORIGINATOR/></header><body><segment><metadata><OBJECT_NAME>IRIDIUM 44</OBJECT_NAME><OBJECT_ID>1997-077B</OBJECT_ID><CENTER_NAME>EARTH</CENTER_NAME><REF_FRAME>TEME</REF_FRAME><TIME_SYSTEM>UTC</TIME_SYSTEM><MEAN_ELEMENT_THEORY>SGP4</MEAN_ELEMENT_THEORY></metadata><data><meanElements><EPOCH>2025-10-11T03:39:32.466240</EPOCH><MEAN_MOTION>14.40354312</MEAN_MOTION><ECCENTRICITY>.0003176</ECCENTRICITY><INCLINATION>86.4022</INCLINATION><RA_OF_ASC_NODE>172.3566</RA_OF_ASC_NODE><ARG_OF_PERICENTER>49.3217</ARG_OF_PERICENTER><MEAN_ANOMALY>310.8258</MEAN_ANOMALY></meanElements><tleParameters><EPHEMERIS_TYPE>0</EPHEMERIS_TYPE><CLASSIFICATION_TYPE>U</CLASSIFICATION_TYPE><NORAD_CAT_ID>25078</NORAD_CAT_ID><ELEMENT_SET_NO>999</ELEMENT_SET_NO><REV_AT_EPOCH>46039</REV_AT_EPOCH><BSTAR>.15757E-3</BSTAR><MEAN_MOTION_DOT>.519E-5</MEAN_MOTION_DOT><MEAN_MOTION_DDOT>0</MEAN_MOTION_DDOT></tleParameters></data></segment></body></omm>
<omm id="CCSDS_OMM_VERS" version="2.0">
<header><CREATION_DATE/><ORIGINATOR/></header><body><segment><metadata><OBJECT_NAME>IRIDIUM 45</OBJECT_NAME><OBJECT_ID>1997-082A</OBJECT_ID><CENTER_NAME>EARTH</CENTER_NAME><REF_FRAME>TEME</REF_FRAME><TIME_SYSTEM>UTC</TIME_SYSTEM><MEAN_ELEMENT_THEORY>SGP4</MEAN_ELEMENT_THEORY></metadata><data><meanElements><EPOCH>2025-10-11T04:19:17.984064</EPOCH><MEAN_MOTION>15.27233101</MEAN_MOTION><ECCENTRICITY>.0104394</ECCENTRICITY><INCLINATION>86.3606</INCLINATION><RA_OF_ASC_NODE>351.3979</RA_OF_ASC_NODE><ARG_OF_PERICENTER>255.1013</ARG_OF_PERICENTER><MEAN_ANOMALY>103.8655</MEAN_ANOMALY></meanElements><tleParameters><EPHEMERIS_TYPE>0</EPHEMERIS_TYPE><CLASSIFICATION_TYPE>U</CLASSIFICATION_TYPE><NORAD_CAT_ID>25104</NORAD_CAT_ID><ELEMENT_SET_NO>999</ELEMENT_SET_NO><REV_AT_EPOCH>46971</REV_AT_EPOCH><BSTAR>.75809E-3</BSTAR><MEAN_MOTION_DOT>.23846E-3</MEAN_MOTION_DOT><MEAN_MOTION_DDOT>0</MEAN_MOTION_DDOT></tleParameters></data></segment></body></omm>
<omm id="CCSDS_OMM_VERS" version="2.0">
<header><CREATION_DATE/><ORIGINATOR/></header><body><segment><metadata><OBJECT_NAME>IRIDIUM 24</OBJECT_NAME><OBJECT_ID>1997-082B</OBJECT_ID><CENTER_NAME>EARTH</CENTER_NAME><REF_FRAME>TEME</REF_FRAME><TIME_SYSTEM>UTC</TIME_SYSTEM><MEAN_ELEMENT_THEORY>SGP4</MEAN_ELEMENT_THEORY></metadata><data><meanElements><EPOCH>2025-10-11T01:05:00.546144</EPOCH><MEAN_MOTION>14.42235643</MEAN_MOTION><ECCENTRICITY>.0013151</ECCENTRICITY><INCLINATION>86.3945</INCLINATION><RA_OF_ASC_NODE>31.1324</RA_OF_ASC_NODE><ARG_OF_PERICENTER>61.1239</ARG_OF_PERICENTER><MEAN_ANOMALY>299.1279</MEAN_ANOMALY></meanElements><tleParameters><EPHEMERIS_TYPE>0</EPHEMERIS_TYPE><CLASSIFICATION_TYPE>U</CLASSIFICATION_TYPE><NORAD_CAT_ID>25105</NORAD_CAT_ID><ELEMENT_SET_NO>999</ELEMENT_SET_NO><REV_AT_EPOCH>45991</REV_AT_EPOCH><BSTAR>.2047E-3</BSTAR><MEAN_MOTION_DOT>.695E-5</MEAN_MOTION_DOT><MEAN_MOTION_DDOT>0</MEAN_MOTION_DDOT></tleParameters></data></segment></body></omm>
<omm id="CCSDS_OMM_VERS" version="2.0">
<header><CREATION_DATE/><ORIGINATOR/></header><body><segment><metadata><OBJECT_NAME>IRIDIUM 51</OBJECT_NAME><OBJECT_ID>1998-018A</OBJECT_ID><CENTER_NAME>EARTH</CENTER_NAME><REF_FRAME>TEME</REF_FRAME><TIME_SYSTEM>UTC</TIME_SYSTEM><MEAN_ELEMENT_THEORY>SGP4</MEAN_ELEMENT_THEORY></metadata><data><meanElements><EPOCH>2025-10-11T04:27:24.124896</EPOCH><MEAN_MOTION>15.50474236</MEAN_MOTION><ECCENTRICITY>.0069888</ECCENTRICITY><INCLINATION>86.3826</INCLINATION><RA_OF_ASC_NODE>358.0267</RA_OF_ASC_NODE><ARG_OF_PERICENTER>161.0039</ARG_OF_PERICENTER><MEAN_ANOMALY>199.3854</MEAN_ANOMALY></meanElements><tleParameters><EPHEMERIS_TYPE>0</EPHEMERIS_TYPE><CLASSIFICATION_TYPE>U</CLASSIFICATION_TYPE><NORAD_CAT_ID>25262</NORAD_CAT_ID><ELEMENT_SET_NO>999</ELEMENT_SET_NO><REV_AT_EPOCH>46492</REV_AT_EPOCH><BSTAR>.97045E-3</BSTAR><MEAN_MOTION_DOT>.61533E-3</MEAN_MOTION_DOT><MEAN_MOTION_DDOT>0</MEAN_MOTION_DDOT></tleParameters></data></segment></body></omm>
<omm id="CCSDS_OMM_VERS" version="2.0">
<header><CREATION_DATE/><ORIGINATOR/></header><body><segment><metadata><OBJECT_NAME>IRIDIUM 57</OBJECT_NAME><OBJECT_ID>1998-019B</OBJECT_ID><CENTER_NAME>EARTH</CENTER_NAME><REF_FRAME>TEME</REF_FRAME><TIME_SYSTEM>UTC</TIME_SYSTEM><MEAN_ELEMENT_THEORY>SGP4</MEAN_ELEMENT_THEORY></metadata><data><meanElements><EPOCH>2025-10-10T22:04:10.524000</EPOCH><MEAN_MOTION>14.35975930</MEAN_MOTION><ECCENTRICITY>.0002221</ECCENTRICITY><INCLINATION>86.3904</INCLINATION><RA_OF_ASC_NODE>96.7464</RA_OF_ASC_NODE><ARG_OF_PERICENTER>88.2879</ARG_OF_PERICENTER><MEAN_ANOMALY>271.8572</MEAN_ANOMALY></meanElements><tleParameters><EPHEMERIS_TYPE>0</EPHEMERIS_TYPE><CLASSIFICATION_TYPE>U</CLASSIFICATION_TYPE><NORAD_CAT_ID>25273</NORAD_CAT_ID><ELEMENT_SET_NO>999</ELEMENT_SET_NO><REV_AT_EPOCH>44139</REV_AT_EPOCH><BSTAR>.14376E-3</BSTAR><MEAN_MOTION_DOT>.437E-5</MEAN_MOTION_DOT><MEAN_MOTION_DDOT>0</MEAN_MOTION_DDOT></tleParameters></data></segment></body></omm>

</ndm>
